CCSDS_OMM_VERS = 2.0
CREATION_DATE  = 
ORIGINATOR     = 

OBJECT_NAME    = SL-16 R/B
OBJECT_ID      = 1998-043G
CENTER_NAME    = EARTH
REF_FRAME      = TEME
TIME_SYSTEM    = UTC
MEAN_ELEMENT_THEORY = SGP/SGP4

EPOCH          = 2026-02-21T10:53:17.839680
MEAN_MOTION    = 14.26045658
ECCENTRICITY   = .00108505
INCLINATION    = 98.8227
RA_OF_ASC_NODE = 5.7049
ARG_OF_PERICENTER = 64.0503
MEAN_ANOMALY   = 296.1794

EPHEMERIS_TYPE = 0
CLASSIFICATION_TYPE = U
NORAD_CAT_ID   = 25400
ELEMENT_SET_NO = 999
REV_AT_EPOCH   = 43667
BSTAR          = .46728366E-4
MEAN_MOTION_DOT = .66E-6
MEAN_MOTION_DDOT = 0

CCSDS_OMM_VERS = 2.0
CREATION_DATE  = 
ORIGINATOR     = 

OBJECT_NAME    = SL-16 R/B
OBJECT_ID      = 1998-045B
CENTER_NAME    = EARTH
REF_FRAME      = TEME
TIME_SYSTEM    = UTC
MEAN_ELEMENT_THEORY = SGP/SGP4

EPOCH          = 2026-02-21T14:38:32.925984
MEAN_MOTION    = 14.16191244
ECCENTRICITY   = .00059069
INCLINATION    = 71.0099
RA_OF_ASC_NODE = 215.3870
ARG_OF_PERICENTER = 35.3129
MEAN_ANOMALY   = 324.8385

EPHEMERIS_TYPE = 0
CLASSIFICATION_TYPE = U
NORAD_CAT_ID   = 25407
ELEMENT_SET_NO = 999
REV_AT_EPOCH   = 42482
BSTAR          = .52267818E-4
MEAN_MOTION_DOT = .56E-6
MEAN_MOTION_DDOT = 0

CCSDS_OMM_VERS = 2.0
CREATION_DATE  = 
ORIGINATOR     = 

OBJECT_NAME    = ISS (ZARYA)
OBJECT_ID      = 1998-067A
CENTER_NAME    = EARTH
REF_FRAME      = TEME
TIME_SYSTEM    = UTC
MEAN_ELEMENT_THEORY = SGP/SGP4

EPOCH          = 2026-02-21T13:43:10.706016
MEAN_MOTION    = 15.48184707
ECCENTRICITY   = .00085206
INCLINATION    = 51.6321
RA_OF_ASC_NODE = 152.0271
ARG_OF_PERICENTER = 119.1208
MEAN_ANOMALY   = 241.0634

EPHEMERIS_TYPE = 0
CLASSIFICATION_TYPE = U
NORAD_CAT_ID   = 25544
ELEMENT_SET_NO = 999
REV_AT_EPOCH   = 55383
BSTAR          = .20534485E-3
MEAN_MOTION_DOT = .10573E-3
MEAN_MOTION_DDOT = 0

CCSDS_OMM_VERS = 2.0
CREATION_DATE  = 
ORIGINATOR     = 

OBJECT_NAME    = CZ-4B R/B
OBJECT_ID      = 1999-025C
CENTER_NAME    = EARTH
REF_FRAME      = TEME
TIME_SYSTEM    = UTC
MEAN_ELEMENT_THEORY = SGP/SGP4

EPOCH          = 2026-02-21T08:38:00.220992
MEAN_MOTION    = 14.18261840
ECCENTRICITY   = .00376228
INCLINATION    = 98.6662
RA_OF_ASC_NODE = 97.0255
ARG_OF_PERICENTER = 33.4209
MEAN_ANOMALY   = 341.6980

EPHEMERIS_TYPE = 0
CLASSIFICATION_TYPE = U
NORAD_CAT_ID   = 25732
ELEMENT_SET_NO = 999
REV_AT_EPOCH   = 38585
BSTAR          = .3757671E-4
MEAN_MOTION_DOT = .35E-6
MEAN_MOTION_DDOT = 0

CCSDS_OMM_VERS = 2.0
CREATION_DATE  = 
ORIGINATOR     = 

OBJECT_NAME    = OKEAN-O
OBJECT_ID      = 1999-039A
CENTER_NAME    = EARTH
REF_FRAME      = TEME
TIME_SYSTEM    = UTC
MEAN_ELEMENT_THEORY = SGP/SGP4

EPOCH          = 2026-02-21T03:48:59.575104
MEAN_MOTION    = 14.80306435
ECCENTRICITY   = .00016471
INCLINATION    = 97.9481
RA_OF_ASC_NODE = 112.2157
ARG_OF_PERICENTER = 78.0742
MEAN_ANOMALY   = 282.0654

EPHEMERIS_TYPE = 0
CLASSIFICATION_TYPE = U
NORAD_CAT_ID   = 25860
ELEMENT_SET_NO = 999
REV_AT_EPOCH   = 43194
BSTAR          = .85958856E-4
MEAN_MOTION_DOT = .603E-5
MEAN_MOTION_DDOT = 0

CCSDS_OMM_VERS = 2.0
CREATION_DATE  = 
ORIGINATOR     = 

OBJECT_NAME    = SL-16 R/B
OBJECT_ID      = 1999-039B
CENTER_NAME    = EARTH
REF_FRAME      = TEME
TIME_SYSTEM    = UTC
MEAN_ELEMENT_THEORY = SGP/SGP4

EPOCH          = 2026-02-21T03:42:27.970560
MEAN_MOTION    = 14.81706247
ECCENTRICITY   = .00137605
INCLINATION    = 98.0005
RA_OF_ASC_NODE = 111.2727
ARG_OF_PERICENTER = 314.6478
MEAN_ANOMALY   = 45.3611

EPHEMERIS_TYPE = 0
CLASSIFICATION_TYPE = U
NORAD_CAT_ID   = 25861
ELEMENT_SET_NO = 999
REV_AT_EPOCH   = 43441
BSTAR          = .69342252E-4
MEAN_MOTION_DOT = .493E-5
MEAN_MOTION_DDOT = 0

CCSDS_OMM_VERS = 2.0
CREATION_DATE  = 
ORIGINATOR     = 

OBJECT_NAME    = DELTA 2 R/B
OBJECT_ID      = 1999-041E
CENTER_NAME    = EARTH
REF_FRAME      = TEME
TIME_SYSTEM    = UTC
MEAN_ELEMENT_THEORY = SGP/SGP4

EPOCH          = 2026-02-21T07:13:15.738240
MEAN_MOTION    = 14.11775044
ECCENTRICITY   = .0502218
INCLINATION    = 51.7661
RA_OF_ASC_NODE = 6.7306
ARG_OF_PERICENTER = 300.0387
MEAN_ANOMALY   = 55.1625

EPHEMERIS_TYPE = 0
CLASSIFICATION_TYPE = U
NORAD_CAT_ID   = 25876
ELEMENT_SET_NO = 999
REV_AT_EPOCH   = 36071
BSTAR          = .29496E-3
MEAN_MOTION_DOT = .1599E-4
MEAN_MOTION_DDOT = 0

CCSDS_OMM_VERS = 2.0
CREATION_DATE  = 
ORIGINATOR     = 

OBJECT_NAME    = HELIOS 1B
OBJECT_ID      = 1999-064A
CENTER_NAME    = EARTH
REF_FRAME      = TEME
TIME_SYSTEM    = UTC
MEAN_ELEMENT_THEORY = SGP/SGP4

EPOCH          = 2026-02-21T07:15:15.408288
MEAN_MOTION    = 14.87624818
ECCENTRICITY   = .00023817
INCLINATION    = 98.1713
RA_OF_ASC_NODE = 314.0629
ARG_OF_PERICENTER = 97.1685
MEAN_ANOMALY   = 262.9802

EPHEMERIS_TYPE = 0
CLASSIFICATION_TYPE = U
NORAD_CAT_ID   = 25977
ELEMENT_SET_NO = 999
REV_AT_EPOCH   = 68282
BSTAR          = .19070826E-3
MEAN_MOTION_DOT = .1676E-4
MEAN_MOTION_DDOT = 0

CCSDS_OMM_VERS = 2.0
CREATION_DATE  = 
ORIGINATOR     = 

OBJECT_NAME    = TERRA
OBJECT_ID      = 1999-068A
CENTER_NAME    = EARTH
REF_FRAME      = TEME
TIME_SYSTEM    = UTC
MEAN_ELEMENT_THEORY = SGP/SGP4

EPOCH          = 2026-02-21T15:21:35.425440
MEAN_MOTION    = 14.60995630
ECCENTRICITY   = .00015537
INCLINATION    = 97.9629
RA_OF_ASC_NODE = 106.6851
ARG_OF_PERICENTER = 196.5563
MEAN_ANOMALY   = 325.4378

EPHEMERIS_TYPE = 0
CLASSIFICATION_TYPE = U
NORAD_CAT_ID   = 25994
ELEMENT_SET_NO = 999
REV_AT_EPOCH   = 39273
BSTAR          = .80762298E-4
MEAN_MOTION_DOT = .352E-5
MEAN_MOTION_DDOT = 0

CCSDS_OMM_VERS = 2.0
CREATION_DATE  = 
ORIGINATOR     = 

OBJECT_NAME    = SL-16 R/B
OBJECT_ID      = 2000-006B
CENTER_NAME    = EARTH
REF_FRAME      = TEME
TIME_SYSTEM    = UTC
MEAN_ELEMENT_THEORY = SGP/SGP4

EPOCH          = 2026-02-21T11:31:14.570400
MEAN_MOTION    = 14.15818635
ECCENTRICITY   = .00178073
INCLINATION    = 71.0022
RA_OF_ASC_NODE = 131.9219
ARG_OF_PERICENTER = 212.6560
MEAN_ANOMALY   = 147.3463

EPHEMERIS_TYPE = 0
CLASSIFICATION_TYPE = U
NORAD_CAT_ID   = 26070
ELEMENT_SET_NO = 999
REV_AT_EPOCH   = 34626
BSTAR          = .69906912E-4
MEAN_MOTION_DOT = .9E-6
MEAN_MOTION_DDOT = 0

CCSDS_OMM_VERS = 2.0
CREATION_DATE  = 
ORIGINATOR     = 

OBJECT_NAME    = TITAN 4B R/B
OBJECT_ID      = 2000-047B
CENTER_NAME    = EARTH
REF_FRAME      = TEME
TIME_SYSTEM    = UTC
MEAN_ELEMENT_THEORY = SGP/SGP4

EPOCH          = 2026-02-21T12:41:17.328192
MEAN_MOTION    = 15.09403805
ECCENTRICITY   = .00376091
INCLINATION    = 67.9877
RA_OF_ASC_NODE = 85.9505
ARG_OF_PERICENTER = 54.9014
MEAN_ANOMALY   = 305.5652

EPHEMERIS_TYPE = 0
CLASSIFICATION_TYPE = U
NORAD_CAT_ID   = 26474
ELEMENT_SET_NO = 999
REV_AT_EPOCH   = 39047
BSTAR          = .18150693E-3
MEAN_MOTION_DOT = .2819E-4
MEAN_MOTION_DDOT = 0

CCSDS_OMM_VERS = 2.0
CREATION_DATE  = 
ORIGINATOR     = 

OBJECT_NAME    = ENVISAT
OBJECT_ID      = 2002-009A
CENTER_NAME    = EARTH
REF_FRAME      = TEME
TIME_SYSTEM    = UTC
MEAN_ELEMENT_THEORY = SGP/SGP4

EPOCH          = 2026-02-21T11:46:07.473792
MEAN_MOTION    = 14.39030306
ECCENTRICITY   = .00013459
INCLINATION    = 98.3701
RA_OF_ASC_NODE = 6.4763
ARG_OF_PERICENTER = 86.7297
MEAN_ANOMALY   = 24.2193

EPHEMERIS_TYPE = 0
CLASSIFICATION_TYPE = U
NORAD_CAT_ID   = 27386
ELEMENT_SET_NO = 999
REV_AT_EPOCH   = 25684
BSTAR          = .51463159E-4
MEAN_MOTION_DOT = .116E-5
MEAN_MOTION_DDOT = 0

